STARLINK-4730           
1 53794U 22111X   26162.45498911 -.00000636  00000+0 -21905-4 0  9990
2 53794  53.1602 212.9771 0001178  84.4572 275.6554 15.08834808207843
STARLINK-4742           
1 53795U 22111Y   26163.83033214  .00000305  00000+0  37236-4 0  9990
2 53795  53.1589 206.6304 0001189  89.5190 270.5937 15.08831008208056
STARLINK-4723           
1 53797U 22111AA  26163.81927986  .00000003  00000+0  18254-4 0  9992
2 53797  53.1578 206.5608 0001135  79.8115 280.3004 15.08827380208043
STARLINK-4712           
1 53798U 22111AB  26163.82296302 -.00000041  00000+0  15537-4 0  9999
2 53798  53.1586 206.5842 0001243  88.5565 271.5569 15.08831832208044
STARLINK-4710           
1 53799U 22111AC  26163.79913522  .00000836  00000+0  70633-4 0  9995
2 53799  53.1584 197.1590 0001209  83.2345 276.8784 15.08833628208174
STARLINK-4720           
1 53800U 22111AD  26163.83335647  .00054976  00000+0  66054-3 0  9994
2 53800  53.2052 140.8141 0004297  75.6325 285.0873 15.60350482  5871
STARLINK-4715           
1 53801U 22111AE  26163.30501441  .00000050  00000+0  21232-4 0  9998
2 53801  53.1597 199.0582 0001237  84.6823 275.4309 15.08838023208106
STARLINK-4726           
1 53802U 22111AF  26163.24982885  .00000299  00000+0  36868-4 0  9993
2 53802  53.1595 199.4238 0001300  87.1363 272.9778 15.08829153208099
STARLINK-4727           
1 53803U 22111AG  26163.26411085  .00000099  00000+0  24346-4 0  9991
2 53803  53.1602 184.5377 0001743  45.5934 314.5200 15.08834955208304
STARLINK-4729           
1 53804U 22111AH  26163.77195958  .00000000  00000+0  18077-4 0  9992
2 53804  53.1589 191.9942 0001203  85.1837 274.9292 15.08830172208242
STARLINK-4763           
1 53805U 22111AJ  26163.27243712  .00000497  00000+0  49340-4 0  9997
2 53805  53.1602 184.5834 0001282  91.9226 268.1913 15.08835868208300
STARLINK-4768           
1 53806U 22111AK  26163.77560568 -.00001780  00000+0 -93734-4 0  9998
2 53806  53.1610 182.0378 0001554  88.1878 271.9292 15.08841424208384
STARLINK-4738           
1 53819U 22114B   26162.48807272 -.00000239  00000+0  30772-5 0  9999
2 53819  53.1596 242.8539 0001027  82.0477 278.0631 15.08833718206995
STARLINK-4758           
1 53820U 22114C   26162.52123310  .00000111  00000+0  25055-4 0  9995
2 53820  53.1602 243.0516 0000960  88.0954 272.0147 15.08832651206995
STARLINK-4748           
1 53823U 22114F   26163.28894267  .00000492  00000+0  49015-4 0  9992
2 53823  53.1602 194.3651 0001269  88.6148 271.4989 15.08836379207742
STARLINK-4757           
1 53824U 22114G   26162.44385525 -.00002229  00000+0 -12195-3 0  9992
2 53824  53.1595 242.5814 0001467  80.6474 279.4684 15.08842318206902
STARLINK-4751           
1 53825U 22114H   26162.51386468  .00000355  00000+0  40426-4 0  9993
2 53825  53.1603 243.0053 0001230  87.2549 272.8584 15.08830827206995
STARLINK-4756           
1 53826U 22114J   26162.49543912 -.00000229  00000+0  37200-5 0  9998
2 53826  53.1613 242.8932 0001146  91.8251 268.2871 15.08833413206999
STARLINK-4764           
1 53827U 22114K   26162.50649344 -.00000137  00000+0  94772-5 0  9992
2 53827  53.1601 242.9605 0001404  87.8842 272.2310 15.08834764206996
STARLINK-4760           
1 53828U 22114L   26162.49175269  .00000004  00000+0  18358-4 0  9998
2 53828  53.1609 242.8706 0001315  86.7611 273.3531 15.08836809206998
STARLINK-4759           
1 53829U 22114M   26163.29768955 -.00000075  00000+0  13356-4 0  9990
2 53829  53.1595 239.3651 0001104  83.5759 276.5358 15.08832265207116
STARLINK-4761           
1 53830U 22114N   26162.48438565  .00000300  00000+0  36935-4 0  9991
2 53830  53.1608 242.8249 0001244  88.0715 272.0418 15.08834712206994
STARLINK-4649           
1 53831U 22114P   26162.49912367  .00000530  00000+0  51374-4 0  9999
2 53831  53.1608 242.9162 0001206  80.8694 279.2434 15.08831555206993
STARLINK-4747           
1 53832U 22114Q   26162.54325490  .00000764  00000+0  66117-4 0  9991
2 53832  53.1593 242.4818 0001205  87.3387 272.7742 15.08824624207002
STARLINK-4771           
1 53833U 22114R   26162.48902794  .00000179  00000+0  29332-4 0  9991
2 53833  53.1606 242.8534 0001235  90.0464 270.0669 15.08834696206993
STARLINK-4737           
1 53834U 22114S   26163.79446653 -.00001597  00000+0 -82313-4 0  9999
2 53834  53.1593 236.7787 0000895 104.9105 255.1986 15.08814806207199
STARLINK-4783           
1 53835U 22114T   26162.74567600  .00001265  00000+0  97609-4 0  9994
2 53835  53.1600 241.6102 0001101 100.3164 259.7952 15.08827283207030
STARLINK-4778           
1 53836U 22114U   26163.83335647  .00676512  00000+0  13928-1 0  9992
2 53836  53.2171 221.9233 0001154  84.1096  64.0779 15.43205017  5812
STARLINK-4776           
1 53837U 22114V   26162.53957586  .00000314  00000+0  37827-4 0  9999
2 53837  53.1601 242.4581 0001203  82.2908 277.8220 15.08831287207005
STARLINK-4773           
1 53838U 22114W   26162.51478786  .00000430  00000+0  45116-4 0  9997
2 53838  53.1606 233.0293 0001208  86.4652 273.6477 15.08834462207134
