OBJECT_NAME,OBJECT_ID,EPOCH,MEAN_MOTION,ECCENTRICITY,INCLINATION,RA_OF_ASC_NODE,ARG_OF_PERICENTER,MEAN_ANOMALY,EPHEMERIS_TYPE,CLASSIFICATION_TYPE,NORAD_CAT_ID,ELEMENT_SET_NO,REV_AT_EPOCH,BSTAR,MEAN_MOTION_DOT,MEAN_MOTION_DDOT
STARLINK-4730,2022-111X,2026-06-11T10:55:11.059104,15.08834808,.0001178,53.1602,212.9771,84.4572,275.6554,0,U,53794,999,20784,-.21905E-4,-.636E-5,0
STARLINK-4742,2022-111Y,2026-06-12T19:55:40.696896,15.08831008,.0001189,53.1589,206.6304,89.5190,270.5937,0,U,53795,999,20805,.37236E-4,.305E-5,0
STARLINK-4723,2022-111AA,2026-06-12T19:39:45.779904,15.08827380,.0001135,53.1578,206.5608,79.8115,280.3004,0,U,53797,999,20804,.18254E-4,.3E-7,0
STARLINK-4712,2022-111AB,2026-06-12T19:45:04.004928,15.08831832,.0001243,53.1586,206.5842,88.5565,271.5569,0,U,53798,999,20804,.15537E-4,-.41E-6,0
STARLINK-4710,2022-111AC,2026-06-12T19:10:45.283008,15.08833628,.0001209,53.1584,197.1590,83.2345,276.8784,0,U,53799,999,20817,.70633E-4,.836E-5,0
STARLINK-4720,2022-111AD,2026-06-12T20:00:01.999008,15.60350482,.0004297,53.2052,140.8141,75.6325,285.0873,0,U,53800,999,587,.66054E-3,.54976E-3,0
STARLINK-4715,2022-111AE,2026-06-12T07:19:13.245024,15.08838023,.00012377,53.1597,199.0582,84.6823,275.4309,0,U,53801,999,20810,.21232256E-4,.5E-6,0
STARLINK-4726,2022-111AF,2026-06-12T05:59:45.212640,15.08829153,.00013004,53.1595,199.4238,87.1363,272.9778,0,U,53802,999,20809,.36868257E-4,.299E-5,0
STARLINK-4727,2022-111AG,2026-06-12T06:20:19.177440,15.08834955,.0001743,53.1602,184.5377,45.5934,314.5200,0,U,53803,999,20830,.24345543E-4,.99E-6,0
STARLINK-4729,2022-111AH,2026-06-12T18:31:37.307712,15.08830172,.0001203,53.1589,191.9942,85.1837,274.9292,0,U,53804,999,20824,.18077E-4,0,0
STARLINK-4763,2022-111AJ,2026-06-12T06:32:18.567168,15.08835868,.00012826,53.1602,184.5834,91.9226,268.1913,0,U,53805,999,20830,.4933952E-4,.497E-5,0
STARLINK-4768,2022-111AK,2026-06-12T18:36:52.330752,15.08841424,.0001554,53.1610,182.0378,88.1878,271.9292,0,U,53806,999,20838,-.93734E-4,-.178E-4,0
STARLINK-4738,2022-114B,2026-06-11T11:42:49.483008,15.08833718,.0001027,53.1596,242.8539,82.0477,278.0631,0,U,53819,999,20699,.30772E-5,-.239E-5,0
STARLINK-4758,2022-114C,2026-06-11T12:30:34.539840,15.08832651,.000096,53.1602,243.0516,88.0954,272.0147,0,U,53820,999,20699,.25055E-4,.111E-5,0
STARLINK-4748,2022-114F,2026-06-12T06:56:04.646688,15.08836379,.00012698,53.1602,194.3651,88.6148,271.4989,0,U,53823,999,20774,.4901458E-4,.492E-5,0
STARLINK-4757,2022-114G,2026-06-11T10:39:09.093600,15.08842318,.0001467,53.1595,242.5814,80.6474,279.4684,0,U,53824,999,20690,-.12195E-3,-.2229E-4,0
STARLINK-4751,2022-114H,2026-06-11T12:19:57.908352,15.08830827,.000123,53.1603,243.0053,87.2549,272.8584,0,U,53825,999,20699,.40426E-4,.355E-5,0
STARLINK-4756,2022-114J,2026-06-11T11:53:25.939968,15.08833413,.0001146,53.1613,242.8932,91.8251,268.2871,0,U,53826,999,20699,.372E-5,-.229E-5,0
STARLINK-4764,2022-114K,2026-06-11T12:09:21.033216,15.08834764,.0001404,53.1601,242.9605,87.8842,272.2310,0,U,53827,999,20699,.94772E-5,-.137E-5,0
STARLINK-4760,2022-114L,2026-06-11T11:48:07.432416,15.08836809,.0001315,53.1609,242.8706,86.7611,273.3531,0,U,53828,999,20699,.18358E-4,.4E-7,0
STARLINK-4759,2022-114M,2026-06-12T07:08:40.377120,15.08832265,.00011045,53.1595,239.3651,83.5759,276.5358,0,U,53829,999,20711,.13356106E-4,-.75E-6,0
STARLINK-4761,2022-114N,2026-06-11T11:37:30.920160,15.08834712,.0001244,53.1608,242.8249,88.0715,272.0418,0,U,53830,999,20699,.36935E-4,.3E-5,0
STARLINK-4649,2022-114P,2026-06-11T11:58:44.285088,15.08831555,.0001206,53.1608,242.9162,80.8694,279.2434,0,U,53831,999,20699,.51374E-4,.53E-5,0
STARLINK-4747,2022-114Q,2026-06-11T13:02:17.223360,15.08824624,.0001205,53.1593,242.4818,87.3387,272.7742,0,U,53832,999,20700,.66117E-4,.764E-5,0
STARLINK-4771,2022-114R,2026-06-11T11:44:12.014016,15.08834696,.0001235,53.1606,242.8534,90.0464,270.0669,0,U,53833,999,20699,.29332E-4,.179E-5,0
STARLINK-4737,2022-114S,2026-06-12T19:04:01.908192,15.08814806,.0000895,53.1593,236.7787,104.9105,255.1986,0,U,53834,999,20719,-.82313E-4,-.1597E-4,0
STARLINK-4783,2022-114T,2026-06-11T17:53:46.406400,15.08827283,.0001101,53.1600,241.6102,100.3164,259.7952,0,U,53835,999,20703,.97609234E-4,.1265E-4,0
STARLINK-4778,2022-114U,2026-06-12T20:00:01.999008,15.43205017,.0001154,53.2171,221.9233,84.1096,64.0779,0,U,53836,999,581,.13928E-1,.676512E-2,0
STARLINK-4776,2022-114V,2026-06-11T12:56:59.354304,15.08831287,.0001203,53.1601,242.4581,82.2908,277.8220,0,U,53837,999,20700,.37827E-4,.314E-5,0
STARLINK-4773,2022-114W,2026-06-11T12:21:17.671104,15.08834462,.0001208,53.1606,233.0293,86.4652,273.6477,0,U,53838,999,20713,.45116E-4,.43E-5,0
